NORAD_CAT_ID,OBJECT_NAME,OBJECT_TYPE,EPOCH,MEAN_MOTION,ECCENTRICITY,INCLINATION,RA_OF_ASC_NODE,ARG_OF_PERICENTER,MEAN_ANOMALY,BSTAR,MEAN_MOTION_DOT,MEAN_MOTION_DDOT,TLE_LINE0,TLE_LINE1,TLE_LINE2,SEMIMAJOR_AXIS,PERIOD,APOGEE,PERIGEE,DECAYED
53917.0,STARLINK-5036,PAYLOAD,2024-01-27 20:30:34,15.08796431,0.0001524,53.2164,179.046,88.3638,271.7529,0.00061494,9.501e-05,0.0,0 STARLINK-5036,1 53917U 22119AH  24027.85456714  .00009501  00000-0  61494-3 0  9997,2 53917  53.2164 179.0460 0001524  88.3638 271.7529 15.08796431 75305,6918.014,95.44,540.933,538.824,0.0
53917.0,STARLINK-5036,PAYLOAD,2024-01-28 13:59:48,15.08836239,0.0001563,53.2172,175.7757,104.7644,255.3522,1.9465e-05,2.2e-07,0.0,0 STARLINK-5036,1 53917U 22119AH  24028.58319844  .00000022  00000-0  19465-4 0  9991,2 53917  53.2172 175.7757 0001563 104.7644 255.3522 15.08836239 75413,6917.892,95.438,540.838,538.676,0.0
53917.0,STARLINK-5036,PAYLOAD,2024-01-28 18:45:57,15.0884041,0.0001469,53.2168,174.8831,91.0461,269.0699,4.7751e-05,4.72e-06,0.0,0 STARLINK-5036,1 53917U 22119AH  24028.78191573  .00000472  00000-0  47751-4 0  9998,2 53917  53.2168 174.8831 0001469  91.0461 269.0699 15.08840410 75021,6917.879,95.438,540.76,538.728,0.0
53917.0,STARLINK-5036,PAYLOAD,2024-01-29 18:36:44,15.08843446,0.0001423,53.2164,170.4224,87.1976,272.9179,0.00010228,1.34e-05,0.0,0 STARLINK-5036,1 53917U 22119AH  24029.77551194  .00001340  00000-0  10228-3 0  9990,2 53917  53.2164 170.4224 0001423  87.1976 272.9179 15.08843446 75592,6917.87,95.437,540.719,538.75,0.0
53917.0,STARLINK-5036,PAYLOAD,2024-01-30 08:55:13,15.08834809,0.0001545,53.2154,167.7499,80.9775,279.1392,6.6136e-05,7.65e-06,0.0,0 STARLINK-5036,1 53917U 22119AH  24030.37167983  .00000765  00000-0  66136-4 0  9997,2 53917  53.2154 167.7499 0001545  80.9775 279.1392 15.08834809 75260,6917.896,95.438,540.83,538.692,0.0
53917.0,STARLINK-5036,PAYLOAD,2024-01-30 13:41:22,15.08838055,0.000125,53.216,166.8575,91.0599,269.0536,-1.218e-05,-4.82e-06,0.0,0 STARLINK-5036,1 53917U 22119AH  24030.57039986 -.00000482  00000-0 -12180-4 0  9998,2 53917  53.2160 166.8575 0001250  91.0599 269.0536 15.08838055 75717,6917.886,95.438,540.616,538.887,0.0
53917.0,STARLINK-5036,PAYLOAD,2024-01-30 15:16:45,15.08838748,0.0001429,53.2154,166.5601,80.1945,279.9209,3.8821e-06,-2.26e-06,0.0,0 STARLINK-5036,1 53917U 22119AH  24030.63663965 -.00000226  00000-0  38821-5 0  9991,2 53917  53.2154 166.5601 0001429  80.1945 279.9209 15.08838748 75726,6917.884,95.438,540.738,538.761,0.0
53917.0,STARLINK-5036,PAYLOAD,2024-02-01 11:47:33,15.08837933,0.0001395,53.2164,158.2316,91.2519,268.8633,1.4233e-05,-6.1e-07,0.0,0 STARLINK-5036,1 53917U 22119AH  24032.49135973 -.00000061  00000-0  14233-4 0  9997,2 53917  53.2164 158.2316 0001395  91.2519 268.8633 15.08837933 75587,6917.887,95.438,540.717,538.787,0.0
53917.0,STARLINK-5036,PAYLOAD,2024-02-01 16:33:42,15.08842737,0.0001568,53.2151,157.3404,83.9867,276.1303,0.000115,1.543e-05,0.0,0 STARLINK-5036,1 53917U 22119AH  24032.69007599  .00001543  00000-0  11500-3 0  9999,2 53917  53.2151 157.3404 0001568  83.9867 276.1303 15.08842737 76032,6917.872,95.437,540.822,538.652,0.0
53917.0,STARLINK-5036,PAYLOAD,2024-02-02 14:49:05,15.0880636,0.0001743,53.2179,153.1751,83.9149,276.2041,0.00049143,7.535e-05,0.0,0 STARLINK-5036,1 53917U 22119AH  24033.61742438  .00007535  00000-0  49143-3 0  9991,2 53917  53.2179 153.1751 0001743  83.9149 276.2041 15.08806360 76176,6917.983,95.44,541.054,538.642,0.0
53917.0,STARLINK-5036,PAYLOAD,2024-02-03 13:04:30,15.08838354,0.0001614,53.217,149.0081,103.6954,256.4218,1.5072e-05,-4.8e-07,0.0,0 STARLINK-5036,1 53917U 22119AH  24034.54480112 -.00000048  00000-0  15072-4 0  9990,2 53917  53.2170 149.0081 0001614 103.6954 256.4218 15.08838354 76318,6917.885,95.438,540.867,538.634,0.0
53917.0,STARLINK-5036,PAYLOAD,2024-02-03 16:15:16,15.08841546,0.0001648,53.2177,148.4139,101.6767,258.441,3.4667e-05,2.64e-06,0.0,0 STARLINK-5036,1 53917U 22119AH  24034.67727868  .00000264  00000-0  34667-4 0  9996,2 53917  53.2177 148.4139 0001648 101.6767 258.4410 15.08841546 75917,6917.876,95.437,540.881,538.601,0.0
53917.0,STARLINK-5036,PAYLOAD,2024-02-04 14:30:40,15.08845593,0.0001498,53.2175,144.2598,89.4579,270.6585,-4.4363e-05,-9.94e-06,0.0,0 STARLINK-5036,1 53917U 22119AH  24035.60464048 -.00000994  00000-0 -44363-4 0  9994,2 53917  53.2175 144.2598 0001498  89.4579 270.6585 15.08845593 76472,6917.863,95.437,540.765,538.692,0.0
53917.0,STARLINK-5036,PAYLOAD,2024-02-04 17:41:27,15.08842897,0.0001699,53.218,143.6579,71.0116,289.106,3.4233e-06,-2.34e-06,0.0,0 STARLINK-5036,1 53917U 22119AH  24035.73712133 -.00000234  00000-0  34233-5 0  9991,2 53917  53.2180 143.6579 0001699  71.0116 289.1060 15.08842897 76070,6917.872,95.437,540.912,538.561,0.0
53917.0,STARLINK-5036,PAYLOAD,2024-02-05 11:10:42,15.08835699,0.000166,53.2177,140.3859,80.2537,279.8643,3.5192e-05,2.72e-06,0.0,0 STARLINK-5036,1 53917U 22119AH  24036.46576708  .00000272  00000-0  35192-4 0  9993,2 53917  53.2177 140.3859 0001660  80.2537 279.8643 15.08835699 76185,6917.894,95.438,540.907,538.61,0.0
53917.0,STARLINK-5036,PAYLOAD,2024-02-05 14:21:28,15.08839965,0.0001794,53.2179,139.7901,70.5119,289.6067,6.0058e-05,6.68e-06,0.0,0 STARLINK-5036,1 53917U 22119AH  24036.59824480  .00000668  00000-0  60058-4 0  9998,2 53917  53.2179 139.7901 0001794  70.5119 289.6067 15.08839965 76621,6917.88,95.438,540.987,538.504,0.0
53917.0,STARLINK-5036,PAYLOAD,2024-02-06 14:12:15,15.08845814,0.0002193,53.2184,135.3308,56.6362,303.484,8.689e-05,1.095e-05,0.0,0 STARLINK-5036,1 53917U 22119AH  24037.59184190  .00001095  00000-0  86890-4 0  9993,2 53917  53.2184 135.3308 0002193  56.6362 303.4840 15.08845814 76779,6917.863,95.437,541.245,538.211,0.0
53917.0,STARLINK-5036,PAYLOAD,2024-02-07 12:27:39,15.08843947,0.0001666,53.2178,131.1734,76.0053,284.1124,2.5324e-05,1.15e-06,0.0,0 STARLINK-5036,1 53917U 22119AH  24038.51920399  .00000115  00000-0  25324-4 0  9992,2 53917  53.2178 131.1734 0001666  76.0053 284.1124 15.08843947 76490,6917.868,95.437,540.886,538.581,0.0
53917.0,STARLINK-5036,PAYLOAD,2024-02-08 10:43:03,15.08840256,0.0001555,53.2169,127.0104,100.7205,259.3963,-8.6762e-05,-1.669e-05,0.0,0 STARLINK-5036,1 53917U 22119AH  24039.44657041 -.00001669  00000-0 -86762-4 0  9996,2 53917  53.2169 127.0104 0001555 100.7205 259.3963 15.08840256 76637,6917.88,95.438,540.82,538.669,0.0
53917.0,STARLINK-5036,PAYLOAD,2024-02-08 12:18:26,15.08840168,0.0001607,53.217,126.7133,89.9942,270.1235,-6.0893e-05,-1.257e-05,0.0,0 STARLINK-5036,1 53917U 22119AH  24039.51281011 -.00001257  00000-0 -60893-4 0  9994,2 53917  53.2170 126.7133 0001607  89.9942 270.1235 15.08840168 77064,6917.88,95.438,540.857,538.633,0.0
53917.0,STARLINK-5036,PAYLOAD,2024-02-09 12:09:13,15.0884567,0.0001587,53.218,122.2519,95.1262,264.9911,7.1547e-05,8.51e-06,0.0,0 STARLINK-5036,1 53917U 22119AH  24040.50640220  .00000851  00000-0  71547-4 0  9991,2 53917  53.2180 122.2519 0001587  95.1262 264.9911 15.08845670 76799,6917.863,95.437,540.826,538.63,0.0
53917.0,STARLINK-5036,PAYLOAD,2024-02-10 10:24:38,15.08831112,0.0001438,53.2169,118.0876,105.0632,255.0519,3.9894e-05,3.47e-06,0.0,0 STARLINK-5036,1 53917U 22119AH  24041.43377391  .00000347  00000-0  39894-4 0  9999,2 53917  53.2169 118.0876 0001438 105.0632 255.0519 15.08831112 76939,6917.908,95.438,540.767,538.778,0.0
53917.0,STARLINK-5036,PAYLOAD,2024-02-11 03:53:52,15.0884289,0.0001409,53.2166,114.8161,117.5049,242.6087,-3.096e-05,-7.81e-06,0.0,0 STARLINK-5036,1 53917U 22119AH  24042.16241069 -.00000781  00000-0 -30960-4 0  9991,2 53917  53.2166 114.8161 0001409 117.5049 242.6087 15.08842890 77045,6917.872,95.437,540.711,538.762,0.0
53917.0,STARLINK-5036,PAYLOAD,2024-02-11 10:15:24,15.08846737,0.0001401,53.2166,113.6297,110.4845,249.6298,-2.3359e-06,-3.25e-06,0.0,0 STARLINK-5036,1 53917U 22119AH  24042.42736691 -.00000325  00000-0 -23359-5 0  9999,2 53917  53.2166 113.6297 0001401 110.4845 249.6298 15.08846737 77506,6917.86,95.437,540.694,538.756,0.0
53917.0,STARLINK-5036,PAYLOAD,2024-02-11 15:01:33,15.08854048,0.0001811,53.2174,112.7333,125.0007,235.1156,7.0765e-05,8.39e-06,0.0,0 STARLINK-5036,1 53917U 22119AH  24042.62607833  .00000839  00000-0  70765-4 0  9996,2 53917  53.2174 112.7333 0001811 125.0007 235.1156 15.08854048 77117,6917.837,95.437,540.955,538.45,0.0
53917.0,STARLINK-5036,PAYLOAD,2024-02-12 03:44:39,15.08828527,0.0001187,53.217,110.3564,105.1305,254.9819,0.0001938,2.797e-05,0.0,0 STARLINK-5036,1 53917U 22119AH  24043.15601132  .00002797  00000-0  19380-3 0  9991,2 53917  53.2170 110.3564 0001187 105.1305 254.9819 15.08828527 77195,6917.915,95.438,540.602,538.959,0.0
53917.0,STARLINK-5036,PAYLOAD,2024-02-12 11:41:33,15.08851997,0.0001185,53.2166,108.8672,94.8419,265.2709,0.00012857,1.76e-05,0.0,0 STARLINK-5036,1 53917U 22119AH  24043.48719781  .00001760  00000-0  12857-3 0  9998,2 53917  53.2166 108.8672 0001185  94.8419 265.2709 15.08851997 77246,6917.844,95.437,540.528,538.889,0.0
53917.0,STARLINK-5036,PAYLOAD,2024-02-13 03:35:26,15.0883261,0.0001665,53.2178,105.8943,129.4952,230.6187,-9.6471e-05,-1.823e-05,0.0,0 STARLINK-5036,1 53917U 22119AH  24044.14961745 -.00001823  00000-0 -96471-4 0  9998,2 53917  53.2178 105.8943 0001665 129.4952 230.6187 15.08832610 77345,6917.903,95.438,540.92,538.616,0.0
53917.0,STARLINK-5036,PAYLOAD,2024-02-13 11:32:22,15.08837531,0.0001613,53.2173,104.4081,107.9347,252.1821,-4.0679e-05,-9.35e-06,0.0,0 STARLINK-5036,1 53917U 22119AH  24044.48081528 -.00000935  00000-0 -40679-4 0  9999,2 53917  53.2173 104.4081 0001613 107.9347 252.1821 15.08837531 77813,6917.888,95.438,540.869,538.637,0.0
53917.0,STARLINK-5036,PAYLOAD,2024-02-14 09:47:45,15.08846541,0.0001368,53.2167,100.2445,95.0095,265.1053,3.5895e-05,2.83e-06,0.0,0 STARLINK-5036,1 53917U 22119AH  24045.40816844  .00000283  00000-0  35895-4 0  9997,2 53917  53.2167 100.2445 0001368  95.0095 265.1053 15.08846541 77539,6917.86,95.437,540.672,538.779,0.0
